     2.100          NAVIGATION                              RINEX VERSION / TYPE
fic2rin                                 08/04/2010 00:09:25 PGM / RUN BY / DATE
                                                            END OF HEADER
 8 10  8  3 14  0  0.0  .629760324955D-05  .113686837722D-12  .000000000000D+00
     .400000000000D+01 -.554062500000D+02  .390230540383D-08  .166948264164D+01
    -.260770320892D-05  .113088996150D-01  .691413879395D-05  .515367548370D+04
     .223200000000D+06  .968575477600D-07  .133028763966D+01  .162050127983D-06
     .993489491442D+00  .265093750000D+03  .311306977553D+01 -.778103839720D-08
    -.128576784311D-09  .100000000000D+01  .159500000000D+04  .000000000000D+00
     .240000000000D+01  .000000000000D+00 -.372529029846D-08  .400000000000D+01
     .216006000000D+06  .400000000000D+01
 9 10  8  3 14  0  0.0  .221403315663D-04  .227373675443D-11  .000000000000D+00
     .102000000000D+03 -.563437500000D+02  .405909764914D-08  .153788584582D+01
    -.332668423653D-05  .171586456709D-01  .702030956745D-05  .515371041107D+04
     .223200000000D+06 -.186264514923D-07  .123024324823D+01 -.430271029472D-06
     .981163211420D+00  .256093750000D+03  .153992536282D+01 -.782282585210D-08
     .146434671020D-10  .100000000000D+01  .159500000000D+04  .000000000000D+00
     .340000000000D+01  .000000000000D+00 -.558793544769D-08  .102000000000D+03
     .216006000000D+06  .400000000000D+01
10 10  8  3 14  0  0.0 -.487011857331D-04 -.102318153949D-11  .000000000000D+00
     .111000000000D+03  .725312500000D+02  .472019661514D-08 -.632987538220D+00
     .402703881264D-05  .921273813583D-02  .652484595776D-05  .515353948212D+04
     .223200000000D+06  .949949026108D-07 -.814827197783D+00  .121071934700D-06
     .952425762779D+00  .248093750000D+03  .664754744332D+00 -.829177395710D-08
     .846463830045D-10  .100000000000D+01  .159500000000D+04  .000000000000D+00
     .240000000000D+01  .000000000000D+00 -.279396772385D-08  .111000000000D+03
     .216006000000D+06  .400000000000D+01
11 10  8  3 14  0  0.0 -.799987465143D-04 -.261479726760D-11  .000000000000D+00
     .510000000000D+02  .381250000000D+01  .610668293928D-08  .215615337212D+01
     .113621354103D-06  .108917910838D-01  .891089439392D-05  .515375740623D+04
     .223200000000D+06 -.143423676491D-06 -.212284103632D+01 -.247731804848D-06
     .888146650644D+00  .168562500000D+03  .823514053614D+00 -.869036198846D-08
    -.211437378644D-09  .100000000000D+01  .159500000000D+04  .000000000000D+00
     .240000000000D+01  .000000000000D+00 -.116415321827D-07  .510000000000D+02
     .216006000000D+06  .400000000000D+01
12 10  8  3 14  0  0.0 -.869035720825D-04  .397903932026D-11  .000000000000D+00
     .850000000000D+02 -.215937500000D+02  .433803783955D-08  .221176639309D+01
    -.107474625111D-05  .340907019563D-02  .780075788498D-05  .515364089584D+04
     .223200000000D+06 -.130385160446D-07  .231533163481D+01  .819563865662D-07
     .971640701672D+00  .234093750000D+03 -.353381888506D+00 -.787604235449D-08
     .148220459691D-09  .100000000000D+01  .159500000000D+04  .000000000000D+00
     .240000000000D+01  .000000000000D+00 -.116415321827D-07  .850000000000D+02
     .216006000000D+06  .400000000000D+01
13 10  8  3 14  0  0.0  .300503335893D-03 -.795807864051D-12  .000000000000D+00
     .350000000000D+02  .168750000000D+01  .404516849750D-08 -.158841281556D+01
     .279396772385D-06  .444195081946D-02  .427663326263D-05  .515372603989D+04
     .223200000000D+06 -.558793544769D-07  .280983750730D+00  .137835741043D-06
     .992641563643D+00  .318562500000D+03  .178601050934D+01 -.796818904991D-08
    -.221437795202D-10  .100000000000D+01  .159500000000D+04  .000000000000D+00
     .240000000000D+01  .000000000000D+00 -.107102096081D-07  .350000000000D+02
     .216006000000D+06  .400000000000D+01
14 10  8  3 14  0  0.0  .746417790651D-04  .397903932026D-11  .000000000000D+00
     .240000000000D+02 -.109375000000D+02  .416124476112D-08 -.166656330522D+01
    -.437721610069D-06  .535529991612D-02  .402890145779D-05  .515376638985D+04
     .223200000000D+06  .260770320892D-07  .258759290912D+00  .428408384323D-07
     .985863091761D+00  .312937500000D+03 -.214544349516D+01 -.798747556756D-08
     .285726187357D-11  .100000000000D+01  .159500000000D+04  .000000000000D+00
     .240000000000D+01  .000000000000D+00 -.884756445885D-08  .240000000000D+02
     .216006000000D+06  .400000000000D+01
15 10  8  3 14  0  0.0 -.229528173804D-03  .591171556152D-11  .000000000000D+00
     .700000000000D+01  .821875000000D+01  .486448833975D-08 -.178332877130D+01
     .234693288803D-06  .256726995576D-02  .406056642532D-05  .515379356384D+04
     .223200000000D+06  .111758708954D-07  .192561949390D+00 -.109896063805D-06
     .953375982199D+00  .299187500000D+03 -.190915667695D+00 -.837142013182D-08
    -.785747015231D-11  .100000000000D+01  .159500000000D+04  .000000000000D+00
     .240000000000D+01  .000000000000D+00 -.977888703346D-08  .700000000000D+01
     .216006000000D+06  .400000000000D+01
16 10  8  3 14  0  0.0 -.957609154284D-04 -.352429196937D-11  .000000000000D+00
     .440000000000D+02 -.304062500000D+02  .431089385175D-08 -.115557502440D+00
    -.170990824699D-05  .586871325504D-02  .772625207901D-05  .515362515450D+04
     .223200000000D+06  .100582838058D-06  .233284295294D+01  .558793544769D-08
     .972832584919D+00  .238125000000D+03 -.176347047322D+00 -.794104506212D-08
     .173935816553D-09  .100000000000D+01  .159500000000D+04  .000000000000D+00
     .240000000000D+01  .000000000000D+00 -.102445483208D-07  .440000000000D+02
     .216006000000D+06  .400000000000D+01
17 10  8  3 14  0  0.0  .164927449077D-03  .170530256582D-11  .000000000000D+00
     .110000000000D+03 -.207187500000D+02  .465269380337D-08 -.117023590955D+01
    -.114738941193D-05  .552311516367D-02  .726431608200D-05  .515363452148D+04
     .223200000000D+06  .197440385818D-06 -.290759784912D+01 -.242143869400D-07
     .960693116610D+00  .242593750000D+03 -.250151174306D+01 -.800854787388D-08
    -.117504894551D-09  .100000000000D+01  .159500000000D+04  .000000000000D+00
     .340000000000D+01  .000000000000D+00 -.102445483208D-07  .110000000000D+03
     .216006000000D+06  .400000000000D+01
18 10  8  3 14  0  0.0  .847754999995D-04  .227373675443D-11  .000000000000D+00
     .280000000000D+02  .772500000000D+02  .515021452711D-08  .240397598988D+00
     .404939055443D-05  .117612316972D-01  .599585473537D-05  .515371363640D+04
     .223200000000D+06 -.596046447754D-07 -.815900005350D+00  .262632966042D-06
     .936383335827D+00  .254656250000D+03 -.231420691267D+01 -.851535469870D-08
     .667884962947D-10  .100000000000D+01  .159500000000D+04  .000000000000D+00
     .240000000000D+01  .000000000000D+00 -.107102096081D-07  .280000000000D+02
     .216006000000D+06  .400000000000D+01
19 10  8  3 14  0  0.0 -.547207891941D-04 -.295585778076D-11  .000000000000D+00
     .330000000000D+02 -.232187500000D+02  .462519265784D-08 -.192092045620D+01
    -.119209289551D-05  .669797172304D-02  .762939453125D-05  .515376330948D+04
     .223200000000D+06 -.577419996262D-07 -.285276804231D+01 -.745058059692D-08
     .958278846812D+00  .232843750000D+03 -.105324606987D+00 -.796318884164D-08
    -.135719938995D-10  .100000000000D+01  .159500000000D+04  .000000000000D+00
     .240000000000D+01  .000000000000D+00 -.149011611938D-07  .330000000000D+02
     .216006000000D+06  .400000000000D+01
20 10  8  3 14  0  0.0  .525964424014D-04 -.454747350886D-12  .000000000000D+00
     .310000000000D+02  .865312500000D+02  .504128141818D-08  .494493294316D+00
     .421889126301D-05  .411690329202D-02  .681355595589D-05  .515356749916D+04
     .223200000000D+06 -.279396772385D-07 -.869856782147D+00 -.745058059692D-08
     .936279632491D+00  .232843750000D+03  .131824609177D+01 -.846285251178D-08
     .864321716755D-10  .100000000000D+01  .159500000000D+04  .000000000000D+00
     .240000000000D+01  .000000000000D+00 -.791624188423D-08  .310000000000D+02
     .216006000000D+06  .400000000000D+01
22 10  8  3 14  0  0.0  .166126992553D-03 -.795807864051D-12  .000000000000D+00
     .590000000000D+02  .867187500000D+02  .514485716109D-08 -.669738154288D+00
     .461563467979D-05  .553994183429D-02  .599399209023D-05  .515372035980D+04
     .223200000000D+06  .167638063431D-07 -.811132435790D+00  .987201929092D-07
     .934071290356D+00  .252812500000D+03 -.194552450295D+01 -.847928176755D-08
     .146077513286D-09  .100000000000D+01  .159500000000D+04  .000000000000D+00
     .485000000000D+01  .000000000000D+00 -.176951289177D-07  .590000000000D+02
     .216006000000D+06  .400000000000D+01
23 10  8  3 14  0  0.0  .360167119652D-03 -.170530256582D-11  .000000000000D+00
     .190000000000D+02  .490625000000D+01  .458340520294D-08 -.240615537355D+01
     .257045030594D-06  .694608269259D-02  .417046248913D-05  .515366266441D+04
     .223200000000D+06 -.158324837685D-06  .218623644792D+00 -.502914190292D-07
     .967655550441D+00  .309343750000D+03  .306195056827D+01 -.820998483597D-08
    -.607168148133D-11  .100000000000D+01  .159500000000D+04  .000000000000D+00
     .240000000000D+01  .000000000000D+00 -.200234353542D-07  .190000000000D+02
     .216006000000D+06  .400000000000D+01
24 10  8  3 14  0  0.0  .309801194817D-03  .318323145621D-11  .000000000000D+00
     .430000000000D+02  .412812500000D+02  .453126017375D-08 -.176239410053D+01
     .211782753468D-05  .568427843973D-02  .977143645287D-05  .515481660271D+04
     .223200000000D+06 -.726431608200D-07 -.183290837140D+01 -.242143869400D-07
     .948701130924D+00  .186000000000D+03 -.440771331964D+00 -.794890253227D-08
    -.875036448780D-10  .100000000000D+01  .159500000000D+04  .000000000000D+00
     .240000000000D+01  .000000000000D+00 -.139698386192D-08  .430000000000D+02
     .216006000000D+06  .400000000000D+01
